idpoi,title,layer,type,tipo,subcategoria,address,postcode,phone,web,description,image_uri,lat,lon,mp3_uri,lang
8938,Callao,restaurantes,57,Cocina española,Restaurante de 1 Tenedor,"Gregorio Espino, 58",36205,986279034,,Tiene capacidad para 54 comensales.,http://www.turismodevigo.org/sites/turismodevigo/files/res229.jpg,42.2258448890199,-8.70914088908953,,es-ES
8939,Ree,restaurantes,57,Cocina española,Restaurante de 1 Tenedor,"Sagunto, 57",36205,986275265,,Tiene capacidad para 40 comensales.,http://www.turismodevigo.org/sites/turismodevigo/files/res230.jpg,42.2282376497474,-8.70195825636094,,es-ES
8767,Acuario,restaurantes,57,Cocina española,Restaurante de 1 Tenedor,"Cervantes, 23",36201,986223015,,Tiene capacidad para 47 comensales.,http://www.turismodevigo.org/sites/turismodevigo/files/res013.jpg,42.2350628895954,-8.71718847705442,,es-ES
8768,Angel,restaurantes,57,Cocina española,Restaurante de 1 Tenedor,"Alberto Baltar, 3",36210,986298313,,Tiene capacidad para 48 comensales.,http://www.turismodevigo.org/sites/turismodevigo/files/res016.jpg,42.2177444922526,-8.7360687811503,,es-ES
8769,Restaurante Marítimo,restaurantes,57,Cocina española,Restaurante de 1 Tenedor,"Montero Ríos, 36",36201,986431979,,Acogedor restaurante donde se puede degustar los pratos más típicos de la comida gallega.,,42.2404602237287,-8.72133793279272,,es-ES
8983,Bahía,restaurantes,57,Cocina española,Restaurante de 2 Tenedores,Plaza da Pedra,36202,986449655,,Tiene capacidad para 36 comensales.,http://www.turismodevigo.org/sites/turismodevigo/files/res286.jpg,42.239907,-8.725625,,es-ES
10282,Belalola,restaurantes,61,Cocina internacional,Restaurante italiano,"García Olloqui, 7",36202,,,,,42.24027332766675,-8.72438907623291,,es-ES
10262,Lume de Carozo,restaurantes,13,Tapas,Restaurante 1 Tenedor,"Joaquín Yáñez, 5 - Bajo",36202,986228346,http://www.lumedecarozo.com/,El restaurante fusiona la comida tradicional gallega con la cocina más creativa con el objetivo de sorprender a sus clientes con los más deliciosos platos. Dispone de gran variedad de menús.,http://www.turismodevigo.org/sites/turismodevigo/files/lume-de-carozo_img233458t0.jpg,42.23391930556614,-8.719024658203125,,es-ES
10261,Vaiche Boa,restaurantes,13,Tapas,Restaurante 1 Tenedor,"Joaquín Yáñez, 8 - Bajo",36202,661288201,,Nueva tapería en el casco viejo de Vigo. Productos frescos en un ambiente renovado e innovador.,http://www.turismodevigo.org/sites/turismodevigo/files/res290.jpg,42.23391930556614,-8.719024658203125,,es-ES
10249,La Comedia,restaurantes,13,Tapas,Restaurante de 1 Tenedor,"Calle Vázquez Varela, 50.",36205,886 118 466,http://www.lacomediavigo.es,"Desayunos, Menú del día. Tapas varias típicas, cocina casera. Capacidad aprox. salón principal 60 personas. Salón privado, aprox. 50 personas. (por reserva).",http://www.turismodevigo.org/sites/turismodevigo/files/lacomedia.jpg,42.2309422,-8.715305899999976,,es-ES
10250,La Pintxoteca,restaurantes,13,Tapas,Restaurante 1 Tenedor,"Sombrereiros, 2",36202,,,Excelentes tapas al más puro estilo vasco en pleno casco viejo de Vigo.,http://www.turismodevigo.org/sites/turismodevigo/files/res291.jpg,42.2384693,-8.726416599999993,,es-ES
10248,La Fiorella,restaurantes,61,Cocina internacional,Cocina italiana,"Rúa Carral, 30 bajo",36202,,,,http://www.turismodevigo.org/sites/turismodevigo/files/res500.jpg,42.2398859,-8.724824200000057,,es-ES
8971,A Chabola,restaurantes,7,Cocina gallega,Restaurante de 1 Tenedor,Praia Arealonga,36216,986453148,,Especialidad en comida típica gallega.,http://www.turismodevigo.org/sites/turismodevigo/files/res271.jpg,42.2641786623714,-8.6775287359834,,es-ES
8970,Barbantes,restaurantes,57,Cocina española,Restaurante de 1 Tenedor,"Fontenla, 37",36331,986492061,,Tiene capacidad para 65 comensales.,http://www.turismodevigo.org/sites/turismodevigo/files/res268.jpg,42.1964437470107,-8.78945435824598,,es-ES
8969,Barbantes,restaurantes,57,Cocina española,Restaurante de 1 Tenedor,"Cuba, 3",36204,986416024,,Tiene capacidad para 14 comensales. Permanece cerrado los domingos.,http://www.turismodevigo.org/sites/turismodevigo/files/res266.jpg,42.2333496581577,-8.71612116027805,,es-ES
8968,Ensenada,restaurantes,57,Cocina española,Restaurante de 3 Tenedores,"Alfonso XIII, 9-11",36201,986449714,,Tiene capacidad para 64 comensales.,http://www.turismodevigo.org/sites/turismodevigo/files/res265.jpg,42.2352356074978,-8.71544302878924,,es-ES
8967,Argentino,restaurantes,57,Cocina española,Restaurante de 2 Tenedores,"Lepanto, 8",36201,986222026,www.hotelargentino.es,Tiene capacidad para 52 comensales.,http://www.turismodevigo.org/sites/turismodevigo/files/res264.jpg,42.2345449122043,-8.7160497632248,,es-ES
8966,Compostela,restaurantes,57,Cocina española,Restaurante de 2 Tenedores,"Plaza de Compostela, 6",36201,986432896,www.mesoncompostela.com,Tiene capacidad para 56 comensales.,http://www.turismodevigo.org/sites/turismodevigo/files/res263.jpg,42.2390559787886,-8.72285930967866,,es-ES
8965,Zona Cero,restaurantes,57,Cocina española,Restaurante de 1 Tenedor,"México, 8",36204,986482504,,Tiene capacidad para 72 comensales.,http://www.turismodevigo.org/sites/turismodevigo/files/res262.jpg,42.2336046889013,-8.71515322778057,,es-ES
8963,Washington,restaurantes,57,Cocina española,Restaurante de 1 Tenedor,"Teixugueiras nº 19, local 25 D",36057,886128772,,Tiene capacidad para 47 comensales.,http://www.turismodevigo.org/sites/turismodevigo/files/res260.jpg,42.210027015766,-8.75530522821184,,es-ES
8962,Vigomemorial-Hostelería,restaurantes,57,Cocina española,Restaurante de 1 Tenedor,Avda da Ponte,36213,986265280,,Tiene capacidad para 54 comensales.,http://www.turismodevigo.org/sites/turismodevigo/files/res259.jpg,42.2099980427295,-8.67220018606879,,es-ES
8961,Verdemar,restaurantes,57,Cocina española,Restaurante de 1 Tenedor,"Praia de Samil, 175",36212,986240814,www.hotelverdemar.es,Tiene capacidad para 28 comensales.,,42.2055551020531,-8.77674802926676,,es-ES
8960,El Ventanal,restaurantes,57,Cocina española,Restaurante de 1 Tenedor,"As Coutadas, s/n",36207,986413819,,Tiene capacidad para 32 comensales.,http://www.turismodevigo.org/sites/turismodevigo/files/res257.jpg,42.1952491508451,-8.69770839596659,,es-ES
8959,Valle Regadas,restaurantes,57,Cocina española,Restaurante de 1 Tenedor,"Travesía de Vigo, 23",36206,649459173,,Tiene capacidad para 48 comensales.,http://www.turismodevigo.org/sites/turismodevigo/files/res256.jpg,42.2328140676195,-8.70744821013231,,es-ES
8972,Tapas Areal,restaurantes,13,Tapas,Restaurante de 1 Tenedor,"México, 36",36204,986418643,,Tiene capacidad para 50 comensales.,http://www.turismodevigo.org/sites/turismodevigo/files/res273.jpg,42.2324490867894,-8.71596471966545,,es-ES
8973,María Manuela,restaurantes,13,Tapas,Restaurante de 2 Tenedores,"Praza de Compostela, 13",36201,886143162,,Tiene capacidad para 80 comensales.,http://www.turismodevigo.org/sites/turismodevigo/files/res274.jpg,42.2391282265856,-8.72157866101649,,es-ES
8964,El Beso Vigo,restaurantes,57,Cocina española,Restaurante de 1 Tenedor,"Alfonso XIII, 12",36201,986422246,,Tiene capacidad para 26 comensales.,http://www.turismodevigo.org/sites/turismodevigo/files/res261.jpg,42.2364777871945,-8.71713634120944,,es-ES
8985,O Pantón,restaurantes,57,Cocina española,Restaurante de 2 Tenedores,Pescadería,36202,,,Tiene capacidad para 36 comensales.,http://www.turismodevigo.org/sites/turismodevigo/files/res288.jpg,42.239921,-8.725724,,es-ES
8984,Casavella,restaurantes,57,Cocina española,Restaurante de 2 Tenedores,"Pescadería, 1",36202,986227224,,Tiene capacidad para 36 comensales.,http://www.turismodevigo.org/sites/turismodevigo/files/res287.jpg,42.239904,-8.725717,,es-ES
8982,Pizzerías Cambalache,restaurantes,10,Otros,Restaurante de 2 Tenedores,"Avda. de García Barbón, 25",36201,986447171,http://www.pizzeriascambalache.es/spa/default.php,Tiene capacidad para 126 comensales.,http://www.turismodevigo.org/sites/turismodevigo/files/res285.jpg,42.2372853730822,-8.71793126493758,,es-ES
8981,Restaurante Bolboreta,restaurantes,10,Otros,Restaurante de 1 Tenedor,"Brasil, 46",36204,986471415,,Tiene capacidad para 80 comensales.,http://www.turismodevigo.org/sites/turismodevigo/files/res283.jpg,42.2324190980785,-8.71355573718345,,es-ES
8980,Domino´s Pizza,restaurantes,10,Otros,Restaurante de 1 Tenedor,"Pizarro, 60",36204,986480210,www.dominospizza.es,Tiene capacidad para 73 comensales.,http://www.turismodevigo.org/sites/turismodevigo/files/res282.jpg,42.2314670700447,-8.70929569665674,,es-ES
8975,Tapería Restaurante El Cortijo,restaurantes,13,Tapas,Restaurante de 1 Tenedor,"Rosalía de Castro, 59",36201,986229372,,Tiene capacidad para 58 comensales.,http://www.turismodevigo.org/sites/turismodevigo/files/res276.jpg,42.2380595222033,-8.71291330742086,,es-ES
8979,Domino´s Pizza,restaurantes,10,Otros,Restaurante de 1 Tenedor,"Pza. de la Independencia, 5",36211,986232376,www.dominospizza.es,Tiene capacidad para 25 comensales.,http://www.turismodevigo.org/sites/turismodevigo/files/res281.jpg,42.2233846742765,-8.73018765916169,,es-ES
8977,McDonald´s,restaurantes,10,Otros,Restaurante de 1 Tenedor,"C.C. Meixueiro, Autovía Rías Baixas saída 664",36214,986422656,www.mcdonalds.es,Especialidad en comida rápida,http://www.turismodevigo.org/sites/turismodevigo/files/res279.jpg,42.2183593223547,-8.68447447631656,,es-ES
8976,Burguer King,restaurantes,10,Otros,Restaurante de 1 Tenedor,"C. C. A Laxe - Cánovas del Castillo, 1",36208,986122155,www.burgerking.es,Tiene capacidad para 72 comensales.,http://www.turismodevigo.org/sites/turismodevigo/files/res277.jpg,42.2406201943618,-8.72775928848587,,es-ES
8974,Asador Arévalo,restaurantes,58,Asador,Restaurante de 1 Tenedor,Avda. Europa 103,36212,986248360,http://www.asadorarevalo.es/,Tiene capacidad para 42 comensales. Permanece cerrado los lunes.,http://www.turismodevigo.org/sites/turismodevigo/files/res275.jpg,42.2108998180438,-8.77375799464361,,es-ES
8924,Papo's Navia,restaurantes,57,Cocina española,Restaurante de 1 Tenedor,"Teixugueiras 28, bajo",36212,986112762,www.papos.es,Tiene capacidad para 33 comensales.,http://www.turismodevigo.org/sites/turismodevigo/files/res209.jpg,42.2093177992234,-8.75732432176236,,es-ES
8923,Palo-Palo,restaurantes,57,Cocina española,Restaurante de 1 Tenedor,"Martin Codax, 20",36201,986439657,,Tiene capacidad para 40 comensales.,,42.2350674574815,-8.7169292077852,,es-ES
8922,Padrón,restaurantes,7,Cocina gallega,Restaurante de 1 Tenedor,"Sanjurjo Badía, 101",36207,986376003,,Especialidad en comida gallega,http://www.turismodevigo.org/sites/turismodevigo/files/res207.jpg,42.2466884954985,-8.7008680277217,,es-ES
8932,Don Sancho,restaurantes,57,Cocina española,Restaurante de 2 Tenedores,"Plaza de Compostela, 19",36201,886142373,www.donsanchovigo.com,Tiene capacidad para 79 comensales.,http://www.turismodevigo.org/sites/turismodevigo/files/res221.jpg,42.23961372174,-8.72093970015939,,es-ES
8925,Sal Negra,restaurantes,57,Cocina española,Restaurante de 1 Tenedor,"Canceleiro, 9",36201,986228864,,Tiene capacidad para 45 comensales. Permanece cerrado los lunes.,http://www.turismodevigo.org/sites/turismodevigo/files/res213.jpg,42.2375686428699,-8.7142582640945,,es-ES
8926,Pedra Moura,restaurantes,57,Cocina española,Restaurante de 2 Tenedores,"Carretera O Bao, 130",36208,986460543,,Tiene capacidad para 24 comensales. Permanece cerrado los lunes.,http://www.turismodevigo.org/sites/turismodevigo/files/res214.jpg,42.1951418711814,-8.78791943903351,,es-ES
8927,Pedrenda,restaurantes,57,Cocina española,Restaurante de 1 Tenedor,"Brasil, 20",36204,986410614,,Tiene capacidad para 12 comensales.,http://www.turismodevigo.org/sites/turismodevigo/files/res215.jpg,42.2331830547943,-8.71545070020793,,es-ES
8928,Pekin,restaurantes,57,Cocina española,Restaurante de 2 Tenedores,"Venezuela, 13",36203,986471999,,Tiene capacidad para 70 comensales.,http://www.turismodevigo.org/sites/turismodevigo/files/res216.jpg,42.2340817269696,-8.72298209440396,,es-ES
8929,Victoria,restaurantes,57,Cocina española,Restaurante de 1 Tenedor,"Tomás Alonso, 117 baixo",33790,986297039,www.pecos-bill.com/servicios.htm,Tiene capacidad para 40 comensales.,http://www.turismodevigo.org/sites/turismodevigo/files/res217.jpg,42.2236702038043,-8.73939709837612,,es-ES
8930,Pigmalión,restaurantes,57,Cocina española,Restaurante de 1 Tenedor,"Castelar, 9",36201,986228270,,Tiene capacidad para 35 comensales. Permanece cerrado los domingos.,http://www.turismodevigo.org/sites/turismodevigo/files/res219.jpg,42.2402096843868,-8.72353228487648,,es-ES
8931,Pomodoro,restaurantes,57,Cocina española,Restaurante de 1 Tenedor,"Severo Ochoa, 2",36202,986210648,,Tiene capacidad para 44 comensales. Permanece cerrado los domingos.,http://www.turismodevigo.org/sites/turismodevigo/files/res220.jpg,42.2288530167318,-8.73363291816645,,es-ES
8921,Ottes-2,restaurantes,57,Cocina española,Restaurante de 2 Tenedores,"Paraguae, 10",36204,986421037,,Tiene capacidad para 44 comensales. Permanece cerrado los lunes.,http://www.turismodevigo.org/sites/turismodevigo/files/res206.jpg,42.2327421217487,-8.71606657096589,,es-ES
8920,Os tres Pes,restaurantes,57,Cocina española,Restaurante de 1 Tenedor,"Jesús Fernández, 10",36205,986251729,,Tiene capacidad para 65 comensales.,http://www.turismodevigo.org/sites/turismodevigo/files/res205.jpg,42.2304864165678,-8.70094941400906,,es-ES
8909,O Mercado,restaurantes,57,Cocina española,Restaurante de 1 Tenedor,"Martínez Garrido, 98",36205,986261600,,Tiene capacidad para 56 comensales.,http://www.turismodevigo.org/sites/turismodevigo/files/res192.jpg,42.225615657397,-8.70504198741872,,es-ES
8911,O Muiño,restaurantes,57,Cocina española,Restaurante de 1 Tenedor,"Tranvía, 5",36215,986281684,,Tiene capacidad para 40 comensales. Permanece cerrado los domingos.,http://www.turismodevigo.org/sites/turismodevigo/files/res194.jpg,42.2233496704531,-8.67065862268323,,es-ES
8912,O Novo Polar,restaurantes,57,Cocina española,Restaurante de 1 Tenedor,"San Francisco, 57",36202,986437271,,Tiene capacidad para 14 comensales.,http://www.turismodevigo.org/sites/turismodevigo/files/res195.jpg,42.2365306476474,-8.73054036601342,,es-ES
8913,O Rancheiro,restaurantes,57,Cocina española,Restaurante de 1 Tenedor,"Baixada O Castelo, 70",36214,986423919,,Tiene capacidad para 50 comensales. Permanece cerrado los domingos.,http://www.turismodevigo.org/sites/turismodevigo/files/res196.jpg,42.2133918017054,-8.68422808979438,,es-ES
8915,O Rincón,restaurantes,57,Cocina española,Restaurante de 1 Tenedor,"Manuel Núñez, 10",36203,986220265,,Tiene capacidad para 40 comensales. Permanece cerrado los domingos.,http://www.turismodevigo.org/sites/turismodevigo/files/res198.jpg,42.2349025719563,-8.72073440038409,,es-ES
8916,Tortiya!,restaurantes,57,Cocina española,Restaurante de 1 Tenedor,"Travesía de Vigo, 233",36207,986252120,,Tiene capacidad para 40 comensales. Permanece cerrado los lunes.,http://www.turismodevigo.org/sites/turismodevigo/files/res199.jpg,42.2456871811128,-8.69433544210997,,es-ES
8917,O Salmón,restaurantes,57,Cocina española,Restaurante de 1 Tenedor,"Camiño Milladas, 5",36205,986264089,,Tiene capacidad para 30 comensales.,,42.2232775430948,-8.70153069311951,,es-ES
8918,Orensano,restaurantes,57,Cocina española,Restaurante de 1 Tenedor,"Avda. Zamora, 7",36203,986420757,,Tiene capacidad para 35 comensales. Permanece cerrado los miércoles.,http://www.turismodevigo.org/sites/turismodevigo/files/res203.jpg,42.2279064692498,-8.7211167385258,,es-ES
8919,Os Pepes,restaurantes,57,Cocina española,Restaurante de 1 Tenedor,"Avda. Zamora, 96",36211,986420714,,Tiene capacidad para 45 comensales.,http://www.turismodevigo.org/sites/turismodevigo/files/res204.jpg,42.2227739934252,-8.72704285962149,,es-ES
8933,Primavera,restaurantes,57,Cocina española,Restaurante de 1 Tenedor,"Ronda de Don Bosco, 17",36202,986223006,,Tiene capacidad para 18 comensales. Permanece cerrado los sábados e los domingos.,http://www.turismodevigo.org/sites/turismodevigo/files/res222.jpg,42.2353051765898,-8.72474766779498,,es-ES
8934,Rancho Argentino,restaurantes,58,Asador,Restaurante de 2 Tenedores,"Arenal, 18 - Local 2",36201,986422982,,Tiene capacidad para 50 comensales.,http://www.turismodevigo.org/sites/turismodevigo/files/res223.jpg,42.2392568288401,-8.71870785811789,,es-ES
8949,Shangai,restaurantes,57,Cocina española,Restaurante de 2 Tenedores,"Plaza de Compostela, 27",36201,986225888,,Tiene capacidad para 90 comensales.,http://www.turismodevigo.org/sites/turismodevigo/files/res242.jpg,42.2395321153647,-8.72303780730945,,es-ES
8950,Sidrería Estribo,restaurantes,57,Cocina española,Restaurante de 1 Tenedor,"Ecuador, 38",36336,986418449,,Tiene capacidad para 30 comensales.,http://www.turismodevigo.org/sites/turismodevigo/files/res243.jpg,42.2335671067619,-8.72032107141195,,es-ES
8951,Sobreira,restaurantes,57,Cocina española,Restaurante de 1 Tenedor,Plaea de Sobreira,36390,986490856,,Tiene capacidad para 60 comensales.,http://www.turismodevigo.org/sites/turismodevigo/files/res244.jpg,42.1895956040992,-8.81031127027773,,es-ES
8952,Taberna del Puerto,restaurantes,57,Cocina española,Restaurante de 1 Tenedor,"Las Avenidas, s/n-Club Náutico",36202,986220246,,Tiene capacidad para 34 comensales.,http://www.turismodevigo.org/sites/turismodevigo/files/res246.jpg,42.2411429552962,-8.72467307830853,,es-ES
8953,Taboada,restaurantes,57,Cocina española,Restaurante de 1 Tenedor,"García Barbón, 71",36201,986222040,www.restaurantetaboada.com,Tiene capacidad para 50 comensales.,http://www.turismodevigo.org/sites/turismodevigo/files/res247.jpg,42.2370972351955,-8.7148279115602,,es-ES
8954,Taboada 26,restaurantes,57,Cocina española,Restaurante de 1 Tenedor,"Luis Taboada, 26",36201,986222168,,Tiene capacidad para 40 comensales.,http://www.turismodevigo.org/sites/turismodevigo/files/res248.jpg,42.2399147111922,-8.72151390244939,,es-ES
8955,Tempo Restaurante do Marco,restaurantes,57,Cocina española,Restaurante de 1 Tenedor,"Príncipe, 54",36202,886116415,,Tiene capacidad para 44 comensales.,http://www.turismodevigo.org/sites/turismodevigo/files/res250.jpg,42.2359553971449,-8.72111131718478,,es-ES
8956,Basilio Toralla,restaurantes,57,Cocina española,Restaurante de 1 Tenedor,"Praia de Canido, 217-B",36390,986490061,,Tiene capacidad para 28 comensales. Permanece cerrado los domingos.,http://www.turismodevigo.org/sites/turismodevigo/files/res251.jpg,42.1928817429487,-8.79789337723567,,es-ES
8957,Turista,restaurantes,7,Cocina gallega,Restaurante de 1 Tenedor,"Ribeira do Berbés, 27",36214,986222007,www.restauranteturista.es,Tiene capacidad para 8 comensales.,http://www.turismodevigo.org/sites/turismodevigo/files/res253.jpg,42.2373301046046,-8.72916207686991,,es-ES
8958,A Lareira das Irmáns,restaurantes,57,Cocina española,Restaurante de 1 Tenedor,"Piñeiro, 56",36207,986373388,,Tiene capacidad para 22 comensales.,http://www.turismodevigo.org/sites/turismodevigo/files/res254.jpg,42.2517815770992,-8.70275191977136,,es-ES
8947,Seijo,restaurantes,57,Cocina española,Restaurante de 1 Tenedor,Avda. Madrid (Cabral),36318,986279303,www.restauranteseijo.com,Tiene capacidad para 80 comensales.,http://www.turismodevigo.org/sites/turismodevigo/files/res240.jpg,42.2130023507443,-8.67158416062848,,es-ES
8946,Saratoga,restaurantes,57,Cocina española,Restaurante de 1 Tenedor,"Pizarro, 11",36204,986410782,,Tiene capacidad para 24 comensales. Permanece cerrado los domingos.,http://www.turismodevigo.org/sites/turismodevigo/files/res238.jpg,42.2298357807375,-8.71806359326152,,es-ES
8945,Casa Saillo,restaurantes,58,Asador,Restaurante de 1 Tenedor,"Ctra. Vieja de Madrid, 66",36214,986275804,,Tiene capacidad para 50 comensales.,http://www.turismodevigo.org/sites/turismodevigo/files/res236.jpg,42.218006596648,-8.6914049162457,,es-ES
8948,Señor,restaurantes,57,Cocina española,Restaurante de 1 Tenedor,"Travesía de Vigo, 10",36206,986252311,,Tiene capacidad para 48 comensales.,http://www.turismodevigo.org/sites/turismodevigo/files/res241.jpg,42.2320375900495,-8.70805008350867,,es-ES
8935,Rancho Grande,restaurantes,57,Cocina española,Restaurante de 1 Tenedor,"Aragón, 222",36207,986271866,,Tiene capacidad para 34 comensales. Permanece cerrado los domingos.,http://www.turismodevigo.org/sites/turismodevigo/files/res224.jpg,42.2421025769561,-8.69824655849436,,es-ES
8936,Reguera,restaurantes,57,Cocina española,Restaurante de 1 Tenedor,"República Argentina, 4",36201,986225019,www.restaurantereguera.es,Tiene capacidad para 80 comensales.,http://www.turismodevigo.org/sites/turismodevigo/files/res227.jpg,42.2387800093208,-8.71956815723729,,es-ES
8937,Reposo del Pescador,restaurantes,57,Cocina española,Restaurante de 1 Tenedor,"Torrecedeira, 3",36202,986434930,,Tiene capacidad para 28 comensales. Permanece cerrado los sábados.,http://www.turismodevigo.org/sites/turismodevigo/files/res228.jpg,42.2351703667804,-8.73078576002285,,es-ES
8940,Rías Baixas,restaurantes,57,Cocina española,Restaurante de 2 Tenedores,"Avda. García Barbón, 16",36201,986223041,,Tiene capacidad para 20 comensales.,http://www.turismodevigo.org/sites/turismodevigo/files/res231.jpg,42.2389860544992,-8.71951748435884,,es-ES
8941,Rías Baixas-2,restaurantes,57,Cocina española,Restaurante de 1 Tenedor,"García Barbón, 21 Esq.Rep.Arg.",36201,986225145,www.riasbaixas2.com,Tiene capacidad para 93 comensales.,http://www.turismodevigo.org/sites/turismodevigo/files/res232.jpg,42.2373833355177,-8.71812514881939,,es-ES
8942,Rías Gallegas I,restaurantes,60,Marisquería,Restaurante de 1 Tenedor,"Real, 51",36202,986442022,http://marisqueriariasgallegas.com/,Tiene capacidad para 88 comensales.,http://www.turismodevigo.org/sites/turismodevigo/files/res233.jpg,42.2380124377267,-8.72880186206862,,es-ES
8943,Richote,restaurantes,57,Cocina española,Restaurante de 1 Tenedor,"Avda. Fermín, 23",36207,986379903,,Tiene capacidad para 20 comensales.,http://www.turismodevigo.org/sites/turismodevigo/files/res234.jpg,42.2539249497295,-8.7025575330978,,es-ES
8944,Roucos,restaurantes,57,Cocina española,Restaurante de 1 Tenedor,"Santa Marta, 14",36202,986435150,,Tiene capacidad para 20 comensales.,http://www.turismodevigo.org/sites/turismodevigo/files/res235.jpg,42.2354060001685,-8.73035368671569,,es-ES
8885,Marítimo,restaurantes,57,Cocina española,Restaurante de 1 Tenedor,"Montero Ríos, nº 38",36201,986431979,,Tiene capacidad para 56 comensales.,http://www.turismodevigo.org/sites/turismodevigo/files/res161.jpg,42.2404723290181,-8.72122968631581,,es-ES
8886,Maruja Limón,restaurantes,59,Cocina de autor,Restaurante de 1 Tenedor,"Victoria, 4",36201,986473406,www.nove.biz/es/maruja-limon,Comida de autor en uno de los restaurantes de referencia en Vigo.,http://www.turismodevigo.org/sites/turismodevigo/files/res162.jpg,42.2389744532124,-8.72442636626308,,es-ES
8887,Mare,restaurantes,57,Cocina española,Restaurante de 1 Tenedor,"Ríos, 157",36216,986452991,,Tiene capacidad para 60 comensales. Permanece cerrado los sábados e los domingos.,http://www.turismodevigo.org/sites/turismodevigo/files/res163.jpg,42.2565770981637,-8.69199471742571,,es-ES
8888,Mediterranean Buffet,restaurantes,10,Otros,Restaurante de 1 Tenedor,Baix. ó Castaño s/n. CC G. Vía,36205,986417266,,Tiene capacidad para 199 comensales.,http://www.turismodevigo.org/sites/turismodevigo/files/res164.jpg,42.2208831269259,-8.72400195368153,,es-ES
8889,Mesón Arbo,restaurantes,57,Cocina española,Restaurante de 1 Tenedor,"Pastora, 57",36210,986470337,,Acogedor restaurante donde se puede degustar los pratos más típicos de la comida gallega.,http://www.turismodevigo.org/sites/turismodevigo/files/res165.jpg,42.2183933953298,-8.72755165062813,,es-ES
8890,Mesón del Marisco,restaurantes,57,Cocina española,Restaurante de 1 Tenedor,"Canido - Praia, 157",36390,986490195,www.mesondomarisco.com,Tiene capacidad para 120 comensales. Permanece cerrado los lunes.,http://www.turismodevigo.org/sites/turismodevigo/files/res169.jpg,42.1936975532479,-8.79688115716961,,es-ES
8884,Marisquería Bahía,restaurantes,60,Marisquería,Restaurante de 2 Tenedores,"Cánovas del Castillo, 24",36202,986449656,www.marisqueriabahia.com,Tiene capacidad para 520 comensales.,http://www.turismodevigo.org/sites/turismodevigo/files/res160.jpg,42.2400696701568,-8.72577398131487,,es-ES
8883,Maintal,restaurantes,7,Cocina gallega,Restaurante de 1 Tenedor,"Maestro Montes, 7",36206,986273834,,Tiene capacidad para 20 comensales. Permanece cerrado los domingos.,http://www.turismodevigo.org/sites/turismodevigo/files/res156.jpg,42.2409299774828,-8.703248339027,,es-ES
8882,MacDonalds Samil,restaurantes,10,Otros,Restaurante de 1 Tenedor,"Avda. Samil, 31",36212,986247743,www.mcdonalds.es,Especialidad en comida rápida,http://www.turismodevigo.org/sites/turismodevigo/files/res155.jpg,42.2106387281044,-8.77429104137984,,es-ES
8881,Los Troncos,restaurantes,57,Cocina española,Restaurante de 1 Tenedor,"Martínez Garrido, 16",36205,986274343,,Tiene capacidad para 46 comensales.,http://www.turismodevigo.org/sites/turismodevigo/files/res154.jpg,42.2294316382256,-8.70016869070523,,es-ES
8880,Green,restaurantes,57,Cocina española,Restaurante de 1 Tenedor,Centro Comercial A Laxe,36011,986136347,,Tiene capacidad para 101 comensales.,http://www.turismodevigo.org/sites/turismodevigo/files/res153.jpg,42.2213284409609,-8.72386340235902,,es-ES
8879,Los Arcos,restaurantes,57,Cocina española,Restaurante de 1 Tenedor,Baixada a Fonte,36201,986222019,,Tiene capacidad para 36 comensales. Permanece cerrado los domingos.,,42.2155469788441,-8.7217120095951,,es-ES
8878,Lizarrán,restaurantes,57,Cocina española,Restaurante de 1 Tenedor,"Canceleiro, 11",36201,986227306,www.lizarran.es,Tiene capacidad para 50 comensales.,http://www.turismodevigo.org/sites/turismodevigo/files/res151.jpg,42.2373888384282,-8.71422957915328,,es-ES
8877,Lino,restaurantes,57,Cocina española,Restaurante de 2 Tenedores,"Lepanto, 28",36201,986220125,,Tiene capacidad para 40 comensales.,http://www.turismodevigo.org/sites/turismodevigo/files/res150.jpg,42.2342823209787,-8.71527214654075,,es-ES
8876,Liceo Exprés,restaurantes,57,Cocina española,Restaurante de 1 Tenedor,Avda Eduardo Cabello,36320,986269910,,Tiene capacidad para 75 comensales.,http://www.turismodevigo.org/sites/turismodevigo/files/res149.jpg,42.2267535266928,-8.75186306728332,,es-ES
8891,Mesón do Lois,restaurantes,57,Cocina española,Restaurante de 1 Tenedor,"Baleares, 16",36203,986424703,,Tiene capacidad para 40 comensales.,http://www.turismodevigo.org/sites/turismodevigo/files/res170.jpg,42.2270562972079,-8.72395800455993,,es-ES
8892,Mesón do Recanto,restaurantes,57,Cocina española,Restaurante de 1 Tenedor,"Torrecedeira, 21",36202,986432485,,Tiene capacidad para 44 comensales. Permanece cerrado los domingos.,http://www.turismodevigo.org/sites/turismodevigo/files/res171.jpg,42.2340453105556,-8.73122984997188,,es-ES
8907,Tenoia,restaurantes,57,Cocina española,Restaurante de 1 Tenedor,"Areal, 18",36201,986220774,,Tiene capacidad para 72 comensales. Permanece cerrado los domingos.,http://www.turismodevigo.org/sites/turismodevigo/files/res189.jpg,42.2392617979952,-8.71882739716872,,es-ES
8906,O Garfo,restaurantes,57,Cocina española,Restaurante de 1 Tenedor,"Eduardo Cabello, 25",36208,986202008,www.ogarfo.com,Destaca por la amplia variedad de empanadas. Tiene capacidad para 85 comensales. Permanece cerrado los lunes.,http://www.turismodevigo.org/sites/turismodevigo/files/res188.jpg,42.2253641413845,-8.75318763107563,,es-ES
8904,O Carro,restaurantes,57,Cocina española,Restaurante de 1 Tenedor,"Mide, 72",36390,986491551,,Tiene capacidad para 50 comensales. Permanece cerrado los lunes.,http://www.turismodevigo.org/sites/turismodevigo/files/res186.jpg,42.177922730438,-8.81176001306037,,es-ES
8903,Taquería Mexicana,restaurantes,57,Cocina española,Restaurante de 1 Tenedor,"Alfonso X el Sabio, 4",36211,986201140,,Tiene capacidad para 30 comensales. Permanece cerrado los domingos.,http://www.turismodevigo.org/sites/turismodevigo/files/res185.jpg,42.2213097971221,-8.73138323539244,,es-ES
8902,O Furancho,restaurantes,57,Cocina española,Restaurante de 1 Tenedor,"Pastora, , 82",36210,986471838,,Tiene capacidad para 30 comensales. Permanece cerrado los domingos.,http://www.turismodevigo.org/sites/turismodevigo/files/res184.jpg,42.2183300752656,-8.72798149965943,,es-ES
8901,Nuevo Maitetxu,restaurantes,57,Cocina española,Restaurante de 1 Tenedor,"Couto, 7",36203,986420151,,Tiene capacidad para 32 comensales. Permanece cerrado los domingos.,http://www.turismodevigo.org/sites/turismodevigo/files/res183.jpg,42.2306022290015,-8.72188260264404,,es-ES
8900,Nicola,restaurantes,57,Cocina española,Restaurante de 1 Tenedor,"Pi e Margall, 137",36202,986298813,,Tiene capacidad para 32 comensales. Permanece cerrado los martes.,http://www.turismodevigo.org/sites/turismodevigo/files/res182.jpg,42.2290677778782,-8.7318808693725,,es-ES
8899,Navia,restaurantes,57,Cocina española,Restaurante de 2 Tenedores,"Av. Europa, 93",36210,986244659,www.restaurantenavia.com,Tiene capacidad para 112 comensales.,http://www.turismodevigo.org/sites/turismodevigo/files/res181.jpg,42.2107498903773,-8.77266229541468,,es-ES
8898,Montreal,restaurantes,57,Cocina española,Restaurante de 1 Tenedor,"Travesía de Vigo, 40",36207,986253610,,Tiene capacidad para 76 comensales. Permanece cerrado los domingos.,http://www.turismodevigo.org/sites/turismodevigo/files/res180.jpg,42.2342271817381,-8.70597150193362,,es-ES
8897,Mesón O Hórreo,restaurantes,57,Cocina española,Restaurante de 1 Tenedor,"Avda. Fragoso, 46",36210,986244441,,Tiene capacidad para 45 comensales.,http://www.turismodevigo.org/sites/turismodevigo/files/res176.jpg,42.2162262217105,-8.73551152631634,,es-ES
8896,Mesón Manzaneda,restaurantes,57,Cocina española,Restaurante de 1 Tenedor,"Alvaro Cunqueiro, 3",36211,986237273,,Tiene capacidad para 24 comensales. Permanece cerrado los sábados e los domingos.,http://www.turismodevigo.org/sites/turismodevigo/files/res175.jpg,42.2244556951599,-8.7303412756398,,es-ES
8895,Mesón Groba,restaurantes,57,Cocina española,Restaurante de 1 Tenedor,"Subida o viaxador, 49",36317,986370992,,Tiene capacidad para 60 comensales. Permanece cerrado los lunes.,http://www.turismodevigo.org/sites/turismodevigo/files/res174.jpg,42.2481507808927,-8.66016284046749,,es-ES
8894,Mesón El Capitán,restaurantes,57,Cocina española,Restaurante de 1 Tenedor,"Triunfo, 5",36202,986220940,,Tiene capacidad para 24 comensales.,http://www.turismodevigo.org/sites/turismodevigo/files/res173.jpg,42.2389887631914,-8.72612558189086,,es-ES
8893,Mesón el Águila,restaurantes,57,Cocina española,Restaurante de 1 Tenedor,"Perú, 2",36202,986224152,http://cotodelaguila.es/web/meson-el-aguila/,Tiene capacidad para 70 comensales.,http://www.turismodevigo.org/sites/turismodevigo/files/res172.jpg,42.237257,-8.72442,,es-ES
8908,O Labrego Urbán,restaurantes,57,Cocina española,Restaurante de 1 Tenedor,"García Olloqui, 36",36201,986446291,www.olabregourban.com,Tiene capacidad para 80 comensales.,http://www.turismodevigo.org/sites/turismodevigo/files/res191.jpg,42.2392354386126,-8.72431375985785,,es-ES
8875,Laxeiro,restaurantes,57,Cocina española,Restaurante de 1 Tenedor,"Ecuador, 92",36204,986425204,www.restaurante-laxeiro-vigo.com/es,Tiene capacidad para 88 comensales. Permanece cerrado los lunes.,http://www.turismodevigo.org/sites/turismodevigo/files/res148.jpg,42.2317770734583,-8.71578259881168,,es-ES
8874,Restaurante Naturaleza,restaurantes,57,Cocina española,Restaurante de 1 Tenedor,"Avda. Alcalde Lavadores, 96",36214,986376893,,Tiene capacidad para 80 comensales. Permanece cerrado los domingos.,http://www.turismodevigo.org/sites/turismodevigo/files/res147.jpg,42.2193675078609,-8.69655218747468,,es-ES
8905,O Conquistador,restaurantes,57,Cocina española,Restaurante de 1 Tenedor,"Martínez Garrido, 49",36205,986274873,,Tiene capacidad para 30 comensales.,http://www.turismodevigo.org/sites/turismodevigo/files/res187.jpg,42.2258804979673,-8.7036528391992,,es-ES
8859,Yguazú,restaurantes,57,Cocina española,Restaurante de 1 Tenedor,"Avda. Camilo Veiga, 29-B",36208,986200508,www.restaurantegaviota.es,Tiene capacidad para 32 comensales.,http://www.turismodevigo.org/sites/turismodevigo/files/res126.jpg,42.222409201473,-8.75179086591702,,es-ES
8860,La Marina,restaurantes,57,Cocina española,Restaurante de 2 Tenedores,"Pescadería, 5",36202,986432370,,Tiene capacidad para 36 comensales.,http://www.turismodevigo.org/sites/turismodevigo/files/res129.jpg,42.2398519393706,-8.72603500703896,,es-ES
8861,La Nata,restaurantes,57,Cocina española,Restaurante de 1 Tenedor,"Gran Vía, 122",36203,986480449,,Tiene capacidad para 68 comensales.,http://www.turismodevigo.org/sites/turismodevigo/files/res130.jpg,42.2237706514745,-8.7242565122274,,es-ES
8862,La Oliva,restaurantes,13,Tapas,Restaurante de 1 Tenedor,Serafín Avendaño. 8,36201,986228864,www.restaurantelaoliva.com,Especialidad en carnes de buee e comidas de grupo.,http://www.turismodevigo.org/sites/turismodevigo/files/res132.jpg,42.2376212185846,-8.71424622938861,,es-ES
8863,La Palma,restaurantes,57,Cocina española,Restaurante de 2 Tenedores,"A Palma, 7",36202,986430678,,Tiene capacidad para 72 comensales. Permanece cerrado los domingos.,http://www.turismodevigo.org/sites/turismodevigo/files/res133.jpg,42.2391348112079,-8.72577629956369,,es-ES
8864,La Parra,restaurantes,7,Cocina gallega,Restaurante de 1 Tenedor,"Rua Alta, 31",36202,986438086,,Tiene capacidad para 8 comensales. Permanece cerrado los domingos.,http://www.turismodevigo.org/sites/turismodevigo/files/res134.jpg,42.2385884246575,-8.72815547708111,,es-ES
8865,La Pasiva Restaurante Churrasquería,restaurantes,58,Asador,Restaurante de 1 Tenedor,"Padre Seixas, 40. Baixo",36209,986128030,www.lapasiva.es,Tiene capacidad para 65 comensales.,http://www.turismodevigo.org/sites/turismodevigo/files/res135.jpg,42.2108567694859,-8.74780709630698,,es-ES
8866,La Piedra,restaurantes,57,Cocina española,Restaurante de 1 Tenedor,"Pescadería, 3",36202,986223765,,Tiene capacidad para 36 comensales.,http://www.turismodevigo.org/sites/turismodevigo/files/res137.jpg,42.2398590519229,-8.72582028635562,,es-ES
8873,La Trucha 1,restaurantes,57,Cocina española,Restaurante de 1 Tenedor,"Oporto, 7",36201,986227304,,Tiene capacidad para 40 comensales. Permanece cerrado los domingos.,http://www.turismodevigo.org/sites/turismodevigo/files/res144.jpg,42.2383107120388,-8.71639280725377,,es-ES
8872,La Trastienda del Cuatro,restaurantes,57,Cocina española,Restaurante de 1 Tenedor,"Pablo Murillo, 4 bajo",36201,986298342,www.latrastiendadelcuatro.com,Tiene capacidad para 70 comensales. Permanece cerrado los domingos.,http://www.turismodevigo.org/sites/turismodevigo/files/res143.jpg,42.2397773383535,-8.7218924992498,,es-ES
8871,La Tahona del Chef,restaurantes,59,Cocina de autor,Restaurante de 2 Tenedores,"Álvaro Cunqueiro, 30",36201,986120015,www.latahonadelchef.com/,Tiene capacidad para 40 comensales. Permanece cerrado los domingos.,http://www.turismodevigo.org/sites/turismodevigo/files/res142.jpg,42.2237712591894,-8.72890841192319,,es-ES
8870,La Tagliatella,restaurantes,57,Cocina española,Restaurante de 1 Tenedor,"Rosalía de Castro, 25 bajo",36201,986116011,www.latagliatella.es/esp/latagliatella-vigo-rosaliadecastro,Tiene capacidad para 133 comensales.,http://www.turismodevigo.org/sites/turismodevigo/files/res141.jpg,42.2383068819058,-8.71713621535265,,es-ES
8869,La Taberna de Toni,restaurantes,57,Cocina española,Restaurante de 1 Tenedor,"Gil, 2",36203,986222419,,Tiene capacidad para 30 comensales. Permanece cerrado los domingos.,http://www.turismodevigo.org/sites/turismodevigo/files/res140.jpg,42.2355189751278,-8.72047200787406,,es-ES
8868,La Quilla,restaurantes,13,Tapas,Restaurante de 1 Tenedor,"Montero Ríos, 10 bajo",36201,986225347,,Acogedor restaurante donde se puede degustar los pratos más típicos de la comida gallega.,http://www.turismodevigo.org/sites/turismodevigo/files/res139.jpg,42.240338708919,-8.72327631879669,,es-ES
8867,La Portuaria,restaurantes,57,Cocina española,Restaurante de 1 Tenedor,"Montero Ríos, 16-B",36201,986112425,,Tiene capacidad para 116 comensales.,http://www.turismodevigo.org/sites/turismodevigo/files/res138.jpg,42.2403255768041,-8.72284061542497,,es-ES
8823,El Mosquito,restaurantes,60,Marisquería,Restaurante de 2 Tenedores,"Plaza de la Piedra, 4",36201,986224441,www.elmosquitovigo.com,"Los origenes del ""Restaurante El Mosquito"" se centran en la década de los años treinta con una actividad inicial de ""Taberna marinera"" en la que se ofrecía la ""Taza de ribeiro e la tapa de pescaditos fritos"" como producto principal.",http://www.turismodevigo.org/sites/turismodevigo/files/res082.jpg,42.2396179993786,-8.72632358619417,,es-ES
8824,El Olivo,restaurantes,57,Cocina española,Restaurante de 1 Tenedor,"Paseo Alfonso XII, 9",36202,986431233,,Tiene capacidad para 42 comensales.,http://www.turismodevigo.org/sites/turismodevigo/files/res083.jpg,42.236632,-8.727913,,es-ES
8826,El Parador del Sabor,restaurantes,57,Cocina española,Restaurante de 1 Tenedor,"Nicaragua, 51",36204,986413817,,Tiene capacidad para 30 comensales.,http://www.turismodevigo.org/sites/turismodevigo/files/res085.jpg,42.23119,-8.719996,,es-ES
8827,A Curuxa,restaurantes,7,Cocina gallega,Restaurante de 1 Tenedor,"Cesteiros, 7 bajo",36202,986438857,,Tiene capacidad para 21 comensales.,http://www.turismodevigo.org/sites/turismodevigo/files/res087.jpg,42.2377321100224,-8.72900842365156,,es-ES
8828,El Puerto,restaurantes,57,Cocina española,Restaurante de 1 Tenedor,"Areal, 30",36201,986222044,,Tiene capacidad para 28 comensales. Permanece cerrado los domingos.,http://www.turismodevigo.org/sites/turismodevigo/files/res089.jpg,42.239236,-8.718013,,es-ES
8829,Don Quijote,restaurantes,57,Cocina española,Restaurante de 2 Tenedores,"Laxe, 4",36202,986229346,www.donquijoterestaurante.es,Tiene capacidad para 48 comensales.,http://www.turismodevigo.org/sites/turismodevigo/files/res090.jpg,42.2393714486541,-8.72499353272501,,es-ES
8830,El Rebozo,restaurantes,57,Cocina española,Restaurante de 2 Tenedores,"Gran Vía, 41",36204,986415444,,Tiene capacidad para 50 comensales.,http://www.turismodevigo.org/sites/turismodevigo/files/res091.jpg,42.2310414674663,-8.71821045847876,,es-ES
8831,El Timón,restaurantes,13,Tapas,Restaurante de 2 Tenedores,"Montero Ríos, 6",36201,986439107,www.eltimonvigo.com,Este restaurante-tapería tiene capacidad para 40 comensales. Permanece cerrado los domingos.,http://www.turismodevigo.org/sites/turismodevigo/files/res092.jpg,42.2403270330766,-8.72356349781453,,es-ES
8832,El Timón Plaea,restaurantes,60,Marisquería,Restaurante de 2 Tenedores,"A Carrasqueira, s/n",36331,986490815,www.restaurantetimonplaea.com,Tiene capacidad para 50 comensales. Permanece cerrado los domingos.,http://www.turismodevigo.org/sites/turismodevigo/files/res093.jpg,42.2026683457883,-8.78090677809628,,es-ES
8833,Esperanza,restaurantes,57,Cocina española,Restaurante de 1 Tenedor,"Luis Taboada, 28",36201,986228615,www.casaesperanza.es,Tiene capacidad para 10 comensales. Permanece cerrado los domingos.,http://www.turismodevigo.org/sites/turismodevigo/files/res094.jpg,42.2399145394163,-8.72144316159876,,es-ES
8822,Azul&Chocolate,restaurantes,57,Cocina española,Restaurante de 1 Tenedor,Galerías Durán; Príncipe,36202,986113529,,Restaurante céntrico. Dispone de menú del día.,http://www.turismodevigo.org/sites/turismodevigo/files/res081.jpg,42.2375255433176,-8.72002830668622,,es-ES
8821,El Mástil,restaurantes,57,Cocina española,Restaurante de 2 Tenedores,Carretera Baiona-Coruxo,36331,986294047,,Tiene capacidad para 56 comensales. Permanece cerrado los sábados e los domingos.,http://www.turismodevigo.org/sites/turismodevigo/files/res080.jpg,42.1945383329712,-8.77136236690184,,es-ES
8820,Danubio Azul,restaurantes,57,Cocina española,Restaurante de 1 Tenedor,"Rúa de Saa, 114",36312,986420025,,Tiene capacidad para 60 comensales. Permanece cerrado los lunes.,http://www.turismodevigo.org/sites/turismodevigo/files/res078.jpg,42.2059900751008,-8.70704243792255,,es-ES
8809,Chilam Balam,restaurantes,10,Otros,Restaurante de 1 Tenedor,"Padre Don Rúa, 11",36203,986116789,www.chilambalam.es,Especialidad en cocina mexicana. Tiene capacidad para 42 comensales.,http://www.turismodevigo.org/sites/turismodevigo/files/res061.jpg,42.2318212109814,-8.71953568889172,,es-ES
8810,Clínica Fátima,restaurantes,57,Cocina española,Restaurante de 1 Tenedor,"Vía Norte, 48",36206,986416376,,Tiene capacidad para 28 comensales. Permanece cerrado los domingos.,http://www.turismodevigo.org/sites/turismodevigo/files/res063.jpg,42.2343708321929,-8.70894739281557,,es-ES
8811,Cre-Cotté Creperie,restaurantes,10,Otros,Restaurante de 2 Tenedores,"Oliva, 10",36202,986438226,www.crecotte.com,Carta amplia e variada. Especialidad en crepes. Tiene capacidad para 60 comensales.,http://www.turismodevigo.org/sites/turismodevigo/files/res064.jpg,42.239444479751,-8.72592258225806,,es-ES
8812,Curbeira,restaurantes,57,Cocina española,Restaurante de 1 Tenedor,"Ctra. Vigo-Baiona, 152",36392,986491260,www.restaurantecurbeira.es,Tiene capacidad para 32 comensales.,http://www.turismodevigo.org/sites/turismodevigo/files/res065.jpg,42.172812328334,-8.81243143551653,,es-ES
8813,Curcuma,restaurantes,57,Cocina española,Restaurante de 1 Tenedor,"Brasil, 4",36204,986411127,,Tiene capacidad para 71 comensales. Permanece cerrado los domingos.,http://www.turismodevigo.org/sites/turismodevigo/files/res066.jpg,42.2336220152078,-8.71651504312202,,es-ES
8814,Disanremo,restaurantes,10,Otros,Restaurante de 2 Tenedores,Paseo marítimo de Samil,36212,986237904,,Tiene capacidad para 36 comensales.,http://www.turismodevigo.org/sites/turismodevigo/files/res069.jpg,42.2150550530389,-8.77380376437467,,es-ES
8815,Doméstica Causa,restaurantes,59,Cocina de autor,Restaurante de 1 Tenedor,"México, 10",36204,986484454,,Tiene capacidad para 45 comensales.,http://www.turismodevigo.org/sites/turismodevigo/files/res071.jpg,42.2335423632475,-8.71521656747943,,es-ES
8816,Durán,restaurantes,57,Cocina española,Restaurante de 1 Tenedor,"Canido, Plaea 129",36390,986490837,www.restauranteduran.com,Tiene capacidad para 64 comensales.,http://www.turismodevigo.org/sites/turismodevigo/files/res072.jpg,42.1951643224357,-8.79558839264128,,es-ES
8818,Eido Vello,restaurantes,57,Cocina española,Restaurante de 1 Tenedor,"Av. Santa Marina, 306",36318,986486349,,Tiene capacidad para 62 comensales. Permanece cerrado los lunes.,http://www.turismodevigo.org/sites/turismodevigo/files/res074.jpg,42.2295444283804,-8.64096403889381,,es-ES
8817,Ébano,restaurantes,57,Cocina española,Restaurante de 2 Tenedores,"Luis Taboada, 27. Baixo esquerda",36210,986224540,www.ebano.es,Tiene capacidad para 48 comensales.,,42.2400564724959,-8.72145817018624,,es-ES
8834,Island,restaurantes,57,Cocina española,Restaurante de 1 Tenedor,Praza da Estrela,36201,986134444,http://www.islandclub.es/restaurante/sal.html,Tiene capacidad para 92 comensales.,http://www.turismodevigo.org/sites/turismodevigo/files/res095.jpg,42.2408161850264,-8.71963559005619,,es-ES
8848,Hospital Xeral de Vigo,restaurantes,57,Cocina española,Restaurante de 1 Tenedor,Pizarro s/n,36204,986415676,,Tiene capacidad para 160 comensales.,http://www.turismodevigo.org/sites/turismodevigo/files/res111.jpg,42.229909615743,-8.71673937706493,,es-ES
8849,Tommy Mel´s,restaurantes,57,Cocina española,Restaurante de 1 Tenedor,"Rosalía de Castro, 14",36201,986116061,www.tommymels.com/,Tiene capacidad para 108 comensales.,http://www.turismodevigo.org/sites/turismodevigo/files/res112.jpg,42.238138892652,-8.71881142911695,,es-ES
8850,Gurpegui Gastrobar,restaurantes,57,Cocina española,Restaurante de 2 Tenedores,"Plaza de Compostela, 16",36201,986222025,,Tiene capacidad para 78 comensales.,http://www.turismodevigo.org/sites/turismodevigo/files/res115.jpg,42.2391582681919,-8.72121650462853,,es-ES
8851,Isola Bella,restaurantes,57,Cocina española,Restaurante de 1 Tenedor,"Ecuador, 23",36203,986435505,,Tiene capacidad para 45 comensales.,http://www.turismodevigo.org/sites/turismodevigo/files/res116.jpg,42.2343097852512,-8.72175053521241,,es-ES
8852,Tapería Mirambel,restaurantes,57,Cocina española,Restaurante de 2 Tenedores,"Praia de Canido, 125",36390,986490923,,Tiene capacidad para 20 comensales.,http://www.turismodevigo.org/sites/turismodevigo/files/res118.jpg,42.1965000045928,-8.7939143050128,,es-ES
8853,Wenzhoo,restaurantes,10,Otros,Restaurante de 1 Tenedor,Avda. Buenos Aires 7- Bajo,36207,986262058,,Tiene capacidad para 50 comensales.,http://www.turismodevigo.org/sites/turismodevigo/files/res119.jpg,42.2495631281247,-8.6953214604926,,es-ES
8854,Juan Gaviota,restaurantes,13,Tapas,Restaurante de 1 Tenedor,"Manuel Castro, 12",36212,986164715,www.restaurantegaviota.es,Tiene capacidad para 116 comensales.,http://www.turismodevigo.org/sites/turismodevigo/files/res120.jpg,42.2136280643331,-8.74144712763316,,es-ES
8855,La Carbonara,restaurantes,57,Cocina española,Restaurante de 1 Tenedor,"Teófilo Llorente 27, baixo",36202,986442908,,Tiene capacidad para 53 comensales.,http://www.turismodevigo.org/sites/turismodevigo/files/res122.jpg,42.2394065602963,-8.72709981396905,,es-ES
8856,Baño María,restaurantes,57,Cocina española,Restaurante de 1 Tenedor,"Martín Codax, 10",36201,986433907,,Tiene capacidad para 60 comensales. Permanece cerrado los domingos.,http://www.turismodevigo.org/sites/turismodevigo/files/res123.jpg,42.2354624847196,-8.71664717191985,,es-ES
8857,La Comidilla,restaurantes,7,Cocina gallega,Restaurante de 1 Tenedor,"Palma, 5",36202,986431143,www.xente.mundo-r.com/julencan/publi/comidilla/,Restuarante acogedor situado en pleno casco viejo de Vigo,http://www.turismodevigo.org/sites/turismodevigo/files/res124.jpg,42.239134667273,-8.72563174987855,,es-ES
8858,La Espuela,restaurantes,57,Cocina española,Restaurante de 1 Tenedor,"Teófilo Llorente, 2",36202,986437307,,Tiene capacidad para 30 comensales.,http://www.turismodevigo.org/sites/turismodevigo/files/res125.jpg,42.240006041724,-8.72616491793941,,es-ES
8846,Habemus Tex,restaurantes,57,Cocina española,Restaurante de 1 Tenedor,"Políg. Tecn. Valladares, rúa C6",36312,986246788,,Tiene capacidad para 153 comensales.,http://www.turismodevigo.org/sites/turismodevigo/files/res109.jpg,42.1769723895796,-8.70891888712709,,es-ES
8847,Hong Kong,restaurantes,10,Otros,Restaurante de 2 Tenedores,"Oporto, 13",36201,986128846,,Tiene capacidad para 80 comensales.,http://www.turismodevigo.org/sites/turismodevigo/files/res110.jpg,42.2375907759014,-8.71630792289352,,es-ES
8835,Fai Bistes,restaurantes,57,Cocina española,Restaurante de 1 Tenedor,"Real, 7",36202,986229204,www.restaurantefaibistes.com,Tiene capacidad para 33 comensales.,http://www.turismodevigo.org/sites/turismodevigo/files/res096.jpg,42.2389915510338,-8.72713357398549,,es-ES
8836,Flunch,restaurantes,57,Cocina española,Restaurante de 1 Tenedor,"Avda. Castelao, s/n",36209,986201924,www.flunch.es/restaurante-vigo1.php,Tiene capacidad para 290 comensales.,http://www.turismodevigo.org/sites/turismodevigo/files/res097.jpg,42.2189635302411,-8.74516823969712,,es-ES
8837,Flunch.2,restaurantes,57,Cocina española,Restaurante de 1 Tenedor,Avda. Madrid. C.C. Alcampo s/n,36214,986471261,www.flunch.es/restaurante-vigo2.php,Tiene capacidad para 210 comensales.,http://www.turismodevigo.org/sites/turismodevigo/files/res098.jpg,42.2155671453105,-8.70160777345768,,es-ES
8838,Follas Novas,restaurantes,57,Cocina española,Restaurante de 1 Tenedor,"Serafín Avendaño, 10",36201,986229306,http://follasnovas.atagalicia.com/nosotros/,Tiene capacidad para 29 comensales. Permanece cerrado los domingos.,,42.2376908636225,-8.71274389971415,,es-ES
8839,A Fontefría,restaurantes,57,Cocina española,Restaurante de 1 Tenedor,"Avda. Madrid (Sabaxans), 119",36214,986251318,,Tiene capacidad para 38 comensales. Permanece cerrado los domingos.,http://www.turismodevigo.org/sites/turismodevigo/files/res100.jpg,42.2202398692746,-8.68438572981408,,es-ES
8840,Foster's Hollewood,restaurantes,10,Otros,Restaurante de 1 Tenedor,"Rúa do Miradoiro, 2 (Centro Comercial Gran Vía)",36210,986471343,www.fostershollewood.es,Cadena de restaurantes de comida americana en España. Especializado en comida rápida.,http://www.turismodevigo.org/sites/turismodevigo/files/res102.jpg,42.2213284402302,-8.7235856382806,,es-ES
8841,Gálgala,restaurantes,10,Otros,Restaurante de 1 Tenedor,"Placer, 4",36202,986221417,www.galgala.es,Tiene capacidad para 16 comensales. Permanece cerrado los domingos e los lunes.,http://www.turismodevigo.org/sites/turismodevigo/files/res104.jpg,42.2361347744214,-8.7259181075223,,es-ES
8842,Gazpara,restaurantes,57,Cocina española,Restaurante de 1 Tenedor,"Praza Princesa, 4",36202,986227639,,Tiene capacidad para 16 comensales. Permanece cerrado los domingos.,http://www.turismodevigo.org/sites/turismodevigo/files/res105.jpg,42.2384190833704,-8.72571998712975,,es-ES
8843,Gonco,restaurantes,57,Cocina española,Restaurante de 1 Tenedor,"Coruña, 40",36208,986202224,,Tiene capacidad para 40 comensales.,http://www.turismodevigo.org/sites/turismodevigo/files/res106.jpg,42.2229704315151,-8.73453813305052,,es-ES
8844,Gran Chaparral,restaurantes,57,Cocina española,Restaurante de 1 Tenedor,A Longra s/n,36330,986290388,,Tiene capacidad para 12 comensales.,http://www.turismodevigo.org/sites/turismodevigo/files/res107.jpg,42.1947041372346,-8.77026419183628,,es-ES
8845,Gran Muralla,restaurantes,10,Otros,Restaurante de 2 Tenedores,"Av. Camelias, 88",36211,986297684,,Tiene capacidad para 70 comensales.,http://www.turismodevigo.org/sites/turismodevigo/files/res108.jpg,42.2264767108271,-8.72991578210356,,es-ES
8776,Casa Bravo,restaurantes,7,Cocina gallega,Restaurante de 1 Tenedor,"Av. Europa, 43",36212,986241296,,Acogedor restaurante donde se puede degustar los pratos más típicos de la comida gallega.,http://www.turismodevigo.org/sites/turismodevigo/files/res024.jpg,42.2140692426756,-8.76325612483981,,es-ES
8775,Asador Soriano,restaurantes,58,Asador,Restaurante de 2 Tenedores,"Chans nº2, Bembrive",36313,986481373,www.asadorsoriano.com,Nuestras instalaciones gozan de unas espléndidas vistas a la ría.,http://www.turismodevigo.org/sites/turismodevigo/files/res023.jpg,42.1990518495598,-8.6808901344487,,es-ES
8774,Asador Siglo XXI,restaurantes,58,Asador,Restaurante de 1 Tenedor,"Heraclio Botana, 3. Baixo",36201,986431344,,Tiene capacidad para 60 comensales.,http://www.turismodevigo.org/sites/turismodevigo/files/res022.jpg,42.2374638155563,-8.71541476708441,,es-ES
8773,Asador Os Muiños,restaurantes,58,Asador,Restaurante de 1 Tenedor,"Carretera Molinos, 19",36213,986208137,,Tiene capacidad para 76 comensales.,http://www.turismodevigo.org/sites/turismodevigo/files/res021.jpg,42.2001904973689,-8.76352415086794,,es-ES
8777,Bao,restaurantes,57,Cocina española,Restaurante de 1 Tenedor,"O Vao, s/n",36201,986491016,,Tiene capacidad para 75 comensales.,http://www.turismodevigo.org/sites/turismodevigo/files/res025.jpg,42.197332545692,-8.78941934207955,,es-ES
8778,Barcelona,restaurantes,57,Cocina española,Restaurante de 1 Tenedor,"Barcelona, 5",36203,986410392,www.mesonbarcelona.es,Lleva más de 50 años ofreciendo los mejores menús de comida casera en la zona de Vigo. Dispone de salón privada e terraza exterior.,http://www.turismodevigo.org/sites/turismodevigo/files/res027.jpg,42.2281363184855,-8.72171690776223,,es-ES
8779,Barranco,restaurantes,57,Cocina española,Restaurante de 1 Tenedor,Ramiro Pascual,36312,986205681,,Tiene capacidad para 24 comensales.,http://www.turismodevigo.org/sites/turismodevigo/files/res028.jpg,42.1953320835549,-8.71801449838837,,es-ES
8780,La Aldeana,restaurantes,57,Cocina española,Restaurante de 1 Tenedor,"Rosalía de Castro, 6",36201,986222214,,Especialidad en comida italiana.,http://www.turismodevigo.org/sites/turismodevigo/files/res029.jpg,42.2381650846696,-8.71944659285637,,es-ES
8781,Bingo Costa Verde,restaurantes,57,Cocina española,Restaurante de 1 Tenedor,"Gregorio Espino, 14",36205,986272200,,Tiene capacidad para 600 comensales.,http://www.turismodevigo.org/sites/turismodevigo/files/res030.jpg,42.2306798594452,-8.70732677179642,,es-ES
8782,Bitadorna Vigo,restaurantes,59,Cocina de autor,Restaurante de 2 Tenedores,"Ecuador, 56",36203,986136951,www.bitadorna.com,Un lugar donde se compagina la cocina tradicional con las nuevas experiencias capaces de satisfacer los paladares más exigentes.,http://www.turismodevigo.org/sites/turismodevigo/files/res031.jpg,42.2341357742837,-8.71777756103909,,es-ES
8783,Bodegón do Pulpo,restaurantes,57,Cocina española,Restaurante de 1 Tenedor,"Vía Norte, 68-70",36206,986253614,www.bodegondopulpo.com,Tiene capacidad para 56 comensales.,http://www.turismodevigo.org/sites/turismodevigo/files/res032.jpg,42.234348152023,-8.70670376773715,,es-ES
8772,As Naves,restaurantes,57,Cocina española,Restaurante de 1 Tenedor,"Camposancos, 119",36213,986236030,,Tiene capacidad para 34 comensales.,http://www.turismodevigo.org/sites/turismodevigo/files/res020.jpg,42.1976584392838,-8.76374039995429,,es-ES
8771,As Grades,restaurantes,57,Cocina española,Restaurante de 1 Tenedor,"Camiño Verdella, 5",36390,986490478,www.restauranteasgrades.com,Tiene capacidad para 30 comensales.,http://www.turismodevigo.org/sites/turismodevigo/files/res019.jpg,42.185926066536,-8.80320718350963,,es-ES
8760,A Gavela,restaurantes,57,Cocina española,Restaurante de 1 Tenedor,"Eduardo Cabello, 17",36208,986207600,,"Empanadas Caseras, Bogavante con Arro,z Caldereta de Pescado, buenos Vinos de la Casa, Condados e Albariños.",http://www.turismodevigo.org/sites/turismodevigo/files/res004.jpg,42.2251324172072,-8.75283499894529,,es-ES
8762,A Ponte,restaurantes,57,Cocina española,Restaurante de 1 Tenedor,"Avda. da Florida, 357",36213,986201421,,Tiene capacidad para 24 comensales. Permanece cerrado los martes.,http://www.turismodevigo.org/sites/turismodevigo/files/res007.jpg,42.2068669307131,-8.75116397034981,,es-ES
8763,A Roda,restaurantes,57,Cocina española,Restaurante de 2 Tenedores,"Av. de Florida, 150",36210,986294683,www.aroda.com,Tradición e cultura argentina en un asador gallego.,http://www.turismodevigo.org/sites/turismodevigo/files/res008.jpg,42.2075274811663,-8.75110620892929,,es-ES
8764,Komo en Kasa de Lola,restaurantes,57,Cocina española,Restaurante de 1 Tenedor,"Ricardo Mella, 107",36213,986238830,,Especialidad en asado de carnes.,http://www.turismodevigo.org/sites/turismodevigo/files/res009.jpg,42.2001113716884,-8.76791317604665,,es-ES
8765,A Videira,restaurantes,57,Cocina española,Restaurante de 1 Tenedor,"Celso Emilio Ferreiro, 11",36203,986412787,,Tiene capacidad para 33 comensales. Permanece cerrado los lunes.,http://www.turismodevigo.org/sites/turismodevigo/files/res010.jpg,42.2327253409276,-8.72422442978063,,es-ES
8766,Abuelo Albino,restaurantes,57,Cocina española,Restaurante de 1 Tenedor,"Salamanca, 2",36211,986482089,,Tiene capacidad para 33 comensales. Permanece cerrado los domingos.,http://www.turismodevigo.org/sites/turismodevigo/files/res012.jpg,42.2240358246082,-8.72846815370208,,es-ES
8770,As Cangas,restaurantes,7,Cocina gallega,Restaurante de 1 Tenedor,"Talude, 3",36205,986281607,www.sidreriaascangas.com,Tiene capacidad para 30 comensales.,http://www.turismodevigo.org/sites/turismodevigo/files/res018.jpg,42.2308911149409,-8.70821454978346,,es-ES
8787,Dalhaisal,restaurantes,7,Cocina gallega,Restaurante de 1 Tenedor,"Manuel de Castro, 9",36210,986244329,,Especialidad en comida casera e todo tipo de arroces. Permanece cerrado los domingos e los lunes por la noche.,http://www.turismodevigo.org/sites/turismodevigo/files/res036.jpg,42.2136828801566,-8.74098591210982,,es-ES
8784,Bogavante,restaurantes,60,Marisquería,Restaurante de 1 Tenedor,"Pescadería, 4",36875,986227264,,Tiene capacidad para 32 comensales.,http://www.turismodevigo.org/sites/turismodevigo/files/res033.jpg,42.2398092639837,-8.72578398335664,,es-ES
8799,Casa Manel,restaurantes,57,Cocina española,Restaurante de 1 Tenedor,"Igrexa Roteas, 4",36201,986460228,,Tiene capacidad para 60 comensales.,,42.1822734051812,-8.80180923336492,,es-ES
8800,Casa Marco,restaurantes,57,Cocina española,Restaurante de 1 Tenedor,"Avda. García Barbón, nº 123 bajo",36201,986225110,,Tiene capacidad para 48 comensales.,http://www.turismodevigo.org/sites/turismodevigo/files/res052.jpg,42.2382945308089,-8.71047448156997,,es-ES
8801,Casa Pepe,restaurantes,57,Cocina española,Restaurante de 1 Tenedor,"Colombia, 11",36204,986419617,,Tiene capacidad para 50 comensales.,http://www.turismodevigo.org/sites/turismodevigo/files/res053.jpg,42.2307724568007,-8.71155203373478,,es-ES
8802,Casa Ramón,restaurantes,57,Cocina española,Restaurante de 1 Tenedor,"Travesía Barciela, 5",36208,986233126,,Tiene capacidad para 20 comensales.,http://www.turismodevigo.org/sites/turismodevigo/files/res054.jpg,42.2236538361563,-8.74112825828907,,es-ES
8803,Casa Sánchez,restaurantes,57,Cocina española,Restaurante de 1 Tenedor,"Oporto, 9",36201,986225032,,Tiene capacidad para 25 comensales. Permanece cerrado los domingos.,http://www.turismodevigo.org/sites/turismodevigo/files/res055.jpg,42.2382384255368,-8.71638176477986,,es-ES
8804,Casa Soutomaeor,restaurantes,57,Cocina española,Restaurante de 1 Tenedor,"Manuel Núñez, 8",36203,986229547,www.soutomaeor.atagalicia.com,Especialidades en comida tradicional gallega. Tiene capacidad para 40 comensales. Permanece cerrado los domingos.,http://www.turismodevigo.org/sites/turismodevigo/files/res056.jpg,42.2348401588391,-8.72076270159845,,es-ES
8805,Casa Villamandos,restaurantes,57,Cocina española,Restaurante de 1 Tenedor,Troncal - Nave Cash Record s/n,36207,986263256,,Tiene capacidad para 40 comensales.,http://www.turismodevigo.org/sites/turismodevigo/files/res057.jpg,42.2417957475396,-8.6961083310746,,es-ES
8806,Casavella,restaurantes,7,Cocina gallega,Restaurante de 1 Tenedor,"Pescadería, 1, bajo derecha",36202,986227244,www.restaurantecasavella.com,Tiene capacidad para 30 comensales.,http://www.turismodevigo.org/sites/turismodevigo/files/res058.jpg,42.2398556914793,-8.72570794782944,,es-ES
8807,Central Pork,restaurantes,7,Cocina gallega,Restaurante de 1 Tenedor,"Vía Norte, 40",36204,986410843,,Tiene capacidad para 75 comensales.,http://www.turismodevigo.org/sites/turismodevigo/files/res059.jpg,42.2345074575488,-8.71019089334244,,es-ES
8808,Centro,restaurantes,57,Cocina española,Restaurante de 1 Tenedor,Manuel Núñez,36203,986220929,,Tiene capacidad para 72 comensales.,http://www.turismodevigo.org/sites/turismodevigo/files/res060.jpg,42.234811,-8.720638,,es-ES
8798,Casa Hong,restaurantes,10,Otros,Restaurante de 1 Tenedor,"Avda. Gran Vía 90, baixo",36203,986421522,,Tiene capacidad para 84 comensales.,http://www.turismodevigo.org/sites/turismodevigo/files/res050.jpg,42.2262233444803,-8.72164193466223,,es-ES
8797,Casa Dalmiro,restaurantes,57,Cocina española,Restaurante de 1 Tenedor,"México, 12-Bajo",36204,986138186,www.casadalmiro.es,Tiene capacidad para 21 comensales. Permanece cerrado los domingos.,http://www.turismodevigo.org/sites/turismodevigo/files/res049.jpg,42.233459209843,-8.71527999945408,,es-ES
8796,Casa Bonin,restaurantes,57,Cocina española,Restaurante de 1 Tenedor,"Oporto, 2",36201,986439197,,Tiene capacidad para 12 comensales.,http://www.turismodevigo.org/sites/turismodevigo/files/res046.jpg,42.238881,-8.716754,,es-ES
8785,Borsalino,restaurantes,57,Cocina española,Restaurante de 1 Tenedor,"Burgos, 46",36205,986373429,,Tiene capacidad para 33 comensales. Permanece cerrado los martes.,http://www.turismodevigo.org/sites/turismodevigo/files/res034.jpg,42.2289594664037,-8.70018740483114,,es-ES
8786,Botón de Ancla,restaurantes,57,Cocina española,Restaurante de 2 Tenedores,"Avda. del Aeropuerto, 772",36318,986269910,,Tiene capacidad para 507 comensales.,http://www.turismodevigo.org/sites/turismodevigo/files/res035.jpg,42.2234803517346,-8.6389118341247,,es-ES
8788,Buraquiño,restaurantes,57,Cocina española,Restaurante de 1 Tenedor,"Covadonga, 9",36208,986237227,,Tiene capacidad para 32 comensales.,http://www.turismodevigo.org/sites/turismodevigo/files/res037.jpg,42.224717404421,-8.75145640003669,,es-ES
8789,Camping Canido,restaurantes,57,Cocina española,Restaurante de 1 Tenedor,"Canido Praia, 151",36202,986462072,www.campingcanido.es,Tiene capacidad para 14 comensales.,http://www.turismodevigo.org/sites/turismodevigo/files/res038.jpg,42.1938570717259,-8.79651050054583,,es-ES
8790,Candilejas,restaurantes,57,Cocina española,Restaurante de 1 Tenedor,"Avda. Camelias, 18",36202,986410894,,Tiene capacidad para 30 comensales.,http://www.turismodevigo.org/sites/turismodevigo/files/res039.jpg,42.233042875232,-8.72939229517806,,es-ES
8791,Canto da Area,restaurantes,57,Cocina española,Restaurante de 1 Tenedor,"Canido-Plaea, 189",36390,986460540,,Tiene capacidad para 30 comensales. Permanece cerrado los lunes.,http://www.turismodevigo.org/sites/turismodevigo/files/res040.jpg,42.1934986660353,-8.79705834787059,,es-ES
8792,Lagharto Pintado,restaurantes,57,Cocina española,Restaurante de 1 Tenedor,"Rosalía de Castro, 8",36201,986108858,,Tiene capacidad para 68 comensales.,http://www.turismodevigo.org/sites/turismodevigo/files/res041.jpg,42.2381225994982,-8.71916989960344,,es-ES
8793,Carballino,restaurantes,57,Cocina española,Restaurante de 1 Tenedor,"Avda. Atlántica, 66",36208,986240698,,Tiene capacidad para 44 comensales.,http://www.turismodevigo.org/sites/turismodevigo/files/res043.jpg,42.22175164182,-8.75889287285635,,es-ES
8794,O Pescador,restaurantes,60,Marisquería,Restaurante de 1 Tenedor,"Ribeira do Berbés, 25 bajo",36202,986223068,www.o-pescador.com,Tiene capacidad para 32 comensales.,http://www.turismodevigo.org/sites/turismodevigo/files/res044.jpg,42.2374329104977,-8.72912510797519,,es-ES
8795,Casa Antonio,restaurantes,57,Cocina española,Restaurante de 2 Tenedores,"Real, 40",36202,986223052,,Tiene capacidad para 20 comensales.,,42.2384881598575,-8.72856367515771,,es-ES
8759,A Bodega de San Miguel,restaurantes,57,Cocina española,Restaurante de 1 Tenedor,"Avda. Cesáreo Vázquez, 63",36390,986490481,,"Tapas variadas, arroces, mariscos, carnes, pescados.",http://www.turismodevigo.org/sites/turismodevigo/files/res003.jpg,42.1808613441892,-8.8028232947204,,es-ES
8825,Asador El Buche,restaurantes,58,Asador,Restaurante de 1 Tenedor,"Pardiña, 48",36208,633569036,https://www.facebook.com/Asador-El-Buche-168164673846913/,Parrillada especializada en carnes argentinas.,http://www.turismodevigo.org/sites/turismodevigo/files/res084.jpg,42.2194140610455,-8.75612636728697,,es-ES
